<?xml version="1.0" encoding="UTF-8"?>
<gpx version="1.1" creator="Fractal Route Demo" xmlns="http://www.topografix.com/GPX/1/1">
  <trk>
    <name>Sample Demo Route</name>
    <desc>Anonymous synthetic demonstration route</desc>
    <trkseg>
      <trkpt lat="38.8895000" lon="-77.0550000"><ele>7.0</ele></trkpt>
      <trkpt lat="38.8895000" lon="-77.0547435"><ele>7.0</ele></trkpt>
      <trkpt lat="38.8896729" lon="-77.0546153"><ele>7.0</ele></trkpt>
      <trkpt lat="38.8895000" lon="-77.0544871"><ele>7.0</ele></trkpt>
      <trkpt lat="38.8895000" lon="-77.0542306"><ele>7.0</ele></trkpt>
      <trkpt lat="38.8896729" lon="-77.0541024"><ele>7.0</ele></trkpt>
      <trkpt lat="38.8898458" lon="-77.0542306"><ele>7.0</ele></trkpt>
      <trkpt lat="38.8898458" lon="-77.0539741"><ele>7.0</ele></trkpt>
      <trkpt lat="38.8900186" lon="-77.0538459"><ele>7.0</ele></trkpt>
      <trkpt lat="38.8898458" lon="-77.0537177"><ele>7.0</ele></trkpt>
      <trkpt lat="38.8898458" lon="-77.0534612"><ele>7.0</ele></trkpt>
      <trkpt lat="38.8896729" lon="-77.0535894"><ele>7.0</ele></trkpt>
      <trkpt lat="38.8895000" lon="-77.0534612"><ele>7.0</ele></trkpt>
      <trkpt lat="38.8895000" lon="-77.0532047"><ele>7.0</ele></trkpt>
      <trkpt lat="38.8896729" lon="-77.0530765"><ele>7.0</ele></trkpt>
      <trkpt lat="38.8895000" lon="-77.0529482"><ele>7.0</ele></trkpt>
      <trkpt lat="38.8895000" lon="-77.0526918"><ele>7.0</ele></trkpt>
      <trkpt lat="38.8896729" lon="-77.0525635"><ele>7.0</ele></trkpt>
      <trkpt lat="38.8898458" lon="-77.0526918"><ele>7.0</ele></trkpt>
      <trkpt lat="38.8898458" lon="-77.0524353"><ele>7.0</ele></trkpt>
      <trkpt lat="38.8900186" lon="-77.0523071"><ele>7.0</ele></trkpt>
      <trkpt lat="38.8901915" lon="-77.0524353"><ele>7.0</ele></trkpt>
      <trkpt lat="38.8901915" lon="-77.0526918"><ele>7.0</ele></trkpt>
      <trkpt lat="38.8903644" lon="-77.0525635"><ele>7.0</ele></trkpt>
      <trkpt lat="38.8905373" lon="-77.0526918"><ele>7.0</ele></trkpt>
      <trkpt lat="38.8905373" lon="-77.0524353"><ele>7.0</ele></trkpt>
      <trkpt lat="38.8907102" lon="-77.0523071"><ele>7.0</ele></trkpt>
      <trkpt lat="38.8905373" lon="-77.0521788"><ele>7.0</ele></trkpt>
      <trkpt lat="38.8905373" lon="-77.0519224"><ele>7.0</ele></trkpt>
      <trkpt lat="38.8907102" lon="-77.0517941"><ele>7.0</ele></trkpt>
      <trkpt lat="38.8908830" lon="-77.0519224"><ele>7.0</ele></trkpt>
      <trkpt lat="38.8908830" lon="-77.0516659"><ele>7.0</ele></trkpt>
      <trkpt lat="38.8910559" lon="-77.0515377"><ele>7.0</ele></trkpt>
      <trkpt lat="38.8908830" lon="-77.0514094"><ele>7.0</ele></trkpt>
      <trkpt lat="38.8908830" lon="-77.0511530"><ele>7.0</ele></trkpt>
      <trkpt lat="38.8907102" lon="-77.0512812"><ele>7.0</ele></trkpt>
      <trkpt lat="38.8905373" lon="-77.0511530"><ele>7.0</ele></trkpt>
      <trkpt lat="38.8905373" lon="-77.0508965"><ele>7.0</ele></trkpt>
      <trkpt lat="38.8907102" lon="-77.0507683"><ele>7.0</ele></trkpt>
      <trkpt lat="38.8905373" lon="-77.0506400"><ele>7.0</ele></trkpt>
      <trkpt lat="38.8905373" lon="-77.0503836"><ele>7.0</ele></trkpt>
      <trkpt lat="38.8903644" lon="-77.0505118"><ele>7.0</ele></trkpt>
      <trkpt lat="38.8901915" lon="-77.0503836"><ele>7.0</ele></trkpt>
      <trkpt lat="38.8901915" lon="-77.0506400"><ele>7.0</ele></trkpt>
      <trkpt lat="38.8900186" lon="-77.0507683"><ele>7.0</ele></trkpt>
      <trkpt lat="38.8898458" lon="-77.0506400"><ele>7.0</ele></trkpt>
      <trkpt lat="38.8898458" lon="-77.0503836"><ele>7.0</ele></trkpt>
      <trkpt lat="38.8896729" lon="-77.0505118"><ele>7.0</ele></trkpt>
      <trkpt lat="38.8895000" lon="-77.0503836"><ele>7.0</ele></trkpt>
      <trkpt lat="38.8895000" lon="-77.0501271"><ele>7.0</ele></trkpt>
      <trkpt lat="38.8896729" lon="-77.0499989"><ele>7.0</ele></trkpt>
      <trkpt lat="38.8895000" lon="-77.0498706"><ele>7.0</ele></trkpt>
      <trkpt lat="38.8895000" lon="-77.0496142"><ele>7.0</ele></trkpt>
      <trkpt lat="38.8896729" lon="-77.0494859"><ele>7.0</ele></trkpt>
      <trkpt lat="38.8898458" lon="-77.0496142"><ele>7.0</ele></trkpt>
      <trkpt lat="38.8898458" lon="-77.0493577"><ele>7.0</ele></trkpt>
      <trkpt lat="38.8900186" lon="-77.0492294"><ele>7.0</ele></trkpt>
      <trkpt lat="38.8898458" lon="-77.0491012"><ele>7.0</ele></trkpt>
      <trkpt lat="38.8898458" lon="-77.0488447"><ele>7.0</ele></trkpt>
      <trkpt lat="38.8896729" lon="-77.0489730"><ele>7.0</ele></trkpt>
      <trkpt lat="38.8895000" lon="-77.0488447"><ele>7.0</ele></trkpt>
      <trkpt lat="38.8895000" lon="-77.0485883"><ele>7.0</ele></trkpt>
      <trkpt lat="38.8896729" lon="-77.0484600"><ele>7.0</ele></trkpt>
      <trkpt lat="38.8895000" lon="-77.0483318"><ele>7.0</ele></trkpt>
      <trkpt lat="38.8895000" lon="-77.0480753"><ele>7.0</ele></trkpt>
      <trkpt lat="38.8896729" lon="-77.0479471"><ele>7.0</ele></trkpt>
      <trkpt lat="38.8898458" lon="-77.0480753"><ele>7.0</ele></trkpt>
      <trkpt lat="38.8898458" lon="-77.0478189"><ele>7.0</ele></trkpt>
      <trkpt lat="38.8900186" lon="-77.0476906"><ele>7.0</ele></trkpt>
      <trkpt lat="38.8901915" lon="-77.0478189"><ele>7.0</ele></trkpt>
      <trkpt lat="38.8901915" lon="-77.0480753"><ele>7.0</ele></trkpt>
      <trkpt lat="38.8903644" lon="-77.0479471"><ele>7.0</ele></trkpt>
      <trkpt lat="38.8905373" lon="-77.0480753"><ele>7.0</ele></trkpt>
      <trkpt lat="38.8905373" lon="-77.0478189"><ele>7.0</ele></trkpt>
      <trkpt lat="38.8907102" lon="-77.0476906"><ele>7.0</ele></trkpt>
      <trkpt lat="38.8905373" lon="-77.0475624"><ele>7.0</ele></trkpt>
      <trkpt lat="38.8905373" lon="-77.0473059"><ele>7.0</ele></trkpt>
      <trkpt lat="38.8907102" lon="-77.0471777"><ele>7.0</ele></trkpt>
      <trkpt lat="38.8908830" lon="-77.0473059"><ele>7.0</ele></trkpt>
      <trkpt lat="38.8908830" lon="-77.0470495"><ele>7.0</ele></trkpt>
      <trkpt lat="38.8910559" lon="-77.0469212"><ele>7.0</ele></trkpt>
      <trkpt lat="38.8912288" lon="-77.0470495"><ele>7.0</ele></trkpt>
      <trkpt lat="38.8912288" lon="-77.0473059"><ele>7.0</ele></trkpt>
      <trkpt lat="38.8914017" lon="-77.0471777"><ele>7.0</ele></trkpt>
      <trkpt lat="38.8915746" lon="-77.0473059"><ele>7.0</ele></trkpt>
      <trkpt lat="38.8915746" lon="-77.0475624"><ele>7.0</ele></trkpt>
      <trkpt lat="38.8914017" lon="-77.0476906"><ele>7.0</ele></trkpt>
      <trkpt lat="38.8915746" lon="-77.0478189"><ele>7.0</ele></trkpt>
      <trkpt lat="38.8915746" lon="-77.0480753"><ele>7.0</ele></trkpt>
      <trkpt lat="38.8917474" lon="-77.0479471"><ele>7.0</ele></trkpt>
      <trkpt lat="38.8919203" lon="-77.0480753"><ele>7.0</ele></trkpt>
      <trkpt lat="38.8919203" lon="-77.0478189"><ele>7.0</ele></trkpt>
      <trkpt lat="38.8920932" lon="-77.0476906"><ele>7.0</ele></trkpt>
      <trkpt lat="38.8922661" lon="-77.0478189"><ele>7.0</ele></trkpt>
      <trkpt lat="38.8922661" lon="-77.0480753"><ele>7.0</ele></trkpt>
      <trkpt lat="38.8924390" lon="-77.0479471"><ele>7.0</ele></trkpt>
      <trkpt lat="38.8926118" lon="-77.0480753"><ele>7.0</ele></trkpt>
      <trkpt lat="38.8926118" lon="-77.0478189"><ele>7.0</ele></trkpt>
      <trkpt lat="38.8927847" lon="-77.0476906"><ele>7.0</ele></trkpt>
      <trkpt lat="38.8926118" lon="-77.0475624"><ele>7.0</ele></trkpt>
      <trkpt lat="38.8926118" lon="-77.0473059"><ele>7.0</ele></trkpt>
      <trkpt lat="38.8927847" lon="-77.0471777"><ele>7.0</ele></trkpt>
      <trkpt lat="38.8929576" lon="-77.0473059"><ele>7.0</ele></trkpt>
      <trkpt lat="38.8929576" lon="-77.0470495"><ele>7.0</ele></trkpt>
      <trkpt lat="38.8931305" lon="-77.0469212"><ele>7.0</ele></trkpt>
      <trkpt lat="38.8929576" lon="-77.0467930"><ele>7.0</ele></trkpt>
      <trkpt lat="38.8929576" lon="-77.0465365"><ele>7.0</ele></trkpt>
      <trkpt lat="38.8927847" lon="-77.0466648"><ele>7.0</ele></trkpt>
      <trkpt lat="38.8926118" lon="-77.0465365"><ele>7.0</ele></trkpt>
      <trkpt lat="38.8926118" lon="-77.0462801"><ele>7.0</ele></trkpt>
      <trkpt lat="38.8927847" lon="-77.0461518"><ele>7.0</ele></trkpt>
      <trkpt lat="38.8926118" lon="-77.0460236"><ele>7.0</ele></trkpt>
      <trkpt lat="38.8926118" lon="-77.0457671"><ele>7.0</ele></trkpt>
      <trkpt lat="38.8927847" lon="-77.0456389"><ele>7.0</ele></trkpt>
      <trkpt lat="38.8929576" lon="-77.0457671"><ele>7.0</ele></trkpt>
      <trkpt lat="38.8929576" lon="-77.0455106"><ele>7.0</ele></trkpt>
      <trkpt lat="38.8931305" lon="-77.0453824"><ele>7.0</ele></trkpt>
      <trkpt lat="38.8933034" lon="-77.0455106"><ele>7.0</ele></trkpt>
      <trkpt lat="38.8933034" lon="-77.0457671"><ele>7.0</ele></trkpt>
      <trkpt lat="38.8934762" lon="-77.0456389"><ele>7.0</ele></trkpt>
      <trkpt lat="38.8936491" lon="-77.0457671"><ele>7.0</ele></trkpt>
      <trkpt lat="38.8936491" lon="-77.0455106"><ele>7.0</ele></trkpt>
      <trkpt lat="38.8938220" lon="-77.0453824"><ele>7.0</ele></trkpt>
      <trkpt lat="38.8936491" lon="-77.0452542"><ele>7.0</ele></trkpt>
      <trkpt lat="38.8936491" lon="-77.0449977"><ele>7.0</ele></trkpt>
      <trkpt lat="38.8938220" lon="-77.0448695"><ele>7.0</ele></trkpt>
      <trkpt lat="38.8939949" lon="-77.0449977"><ele>7.0</ele></trkpt>
      <trkpt lat="38.8939949" lon="-77.0447412"><ele>7.0</ele></trkpt>
      <trkpt lat="38.8941678" lon="-77.0446130"><ele>7.0</ele></trkpt>
      <trkpt lat="38.8939949" lon="-77.0444848"><ele>7.0</ele></trkpt>
      <trkpt lat="38.8939949" lon="-77.0442283"><ele>7.0</ele></trkpt>
      <trkpt lat="38.8938220" lon="-77.0443565"><ele>7.0</ele></trkpt>
      <trkpt lat="38.8936491" lon="-77.0442283"><ele>7.0</ele></trkpt>
      <trkpt lat="38.8936491" lon="-77.0439718"><ele>7.0</ele></trkpt>
      <trkpt lat="38.8938220" lon="-77.0438436"><ele>7.0</ele></trkpt>
      <trkpt lat="38.8936491" lon="-77.0437154"><ele>7.0</ele></trkpt>
      <trkpt lat="38.8936491" lon="-77.0434589"><ele>7.0</ele></trkpt>
      <trkpt lat="38.8934762" lon="-77.0435871"><ele>7.0</ele></trkpt>
      <trkpt lat="38.8933034" lon="-77.0434589"><ele>7.0</ele></trkpt>
      <trkpt lat="38.8933034" lon="-77.0437154"><ele>7.0</ele></trkpt>
      <trkpt lat="38.8931305" lon="-77.0438436"><ele>7.0</ele></trkpt>
      <trkpt lat="38.8929576" lon="-77.0437154"><ele>7.0</ele></trkpt>
      <trkpt lat="38.8929576" lon="-77.0434589"><ele>7.0</ele></trkpt>
      <trkpt lat="38.8927847" lon="-77.0435871"><ele>7.0</ele></trkpt>
      <trkpt lat="38.8926118" lon="-77.0434589"><ele>7.0</ele></trkpt>
      <trkpt lat="38.8926118" lon="-77.0432024"><ele>7.0</ele></trkpt>
      <trkpt lat="38.8927847" lon="-77.0430742"><ele>7.0</ele></trkpt>
      <trkpt lat="38.8926118" lon="-77.0429460"><ele>7.0</ele></trkpt>
      <trkpt lat="38.8926118" lon="-77.0426895"><ele>7.0</ele></trkpt>
      <trkpt lat="38.8927847" lon="-77.0425613"><ele>7.0</ele></trkpt>
      <trkpt lat="38.8929576" lon="-77.0426895"><ele>7.0</ele></trkpt>
      <trkpt lat="38.8929576" lon="-77.0424330"><ele>7.0</ele></trkpt>
      <trkpt lat="38.8931305" lon="-77.0423048"><ele>7.0</ele></trkpt>
      <trkpt lat="38.8929576" lon="-77.0421766"><ele>7.0</ele></trkpt>
      <trkpt lat="38.8929576" lon="-77.0419201"><ele>7.0</ele></trkpt>
      <trkpt lat="38.8927847" lon="-77.0420483"><ele>7.0</ele></trkpt>
      <trkpt lat="38.8926118" lon="-77.0419201"><ele>7.0</ele></trkpt>
      <trkpt lat="38.8926118" lon="-77.0416636"><ele>7.0</ele></trkpt>
      <trkpt lat="38.8927847" lon="-77.0415354"><ele>7.0</ele></trkpt>
      <trkpt lat="38.8926118" lon="-77.0414071"><ele>7.0</ele></trkpt>
      <trkpt lat="38.8926118" lon="-77.0411507"><ele>7.0</ele></trkpt>
      <trkpt lat="38.8924390" lon="-77.0412789"><ele>7.0</ele></trkpt>
      <trkpt lat="38.8922661" lon="-77.0411507"><ele>7.0</ele></trkpt>
      <trkpt lat="38.8922661" lon="-77.0414071"><ele>7.0</ele></trkpt>
      <trkpt lat="38.8920932" lon="-77.0415354"><ele>7.0</ele></trkpt>
      <trkpt lat="38.8919203" lon="-77.0414071"><ele>7.0</ele></trkpt>
      <trkpt lat="38.8919203" lon="-77.0411507"><ele>7.0</ele></trkpt>
      <trkpt lat="38.8917474" lon="-77.0412789"><ele>7.0</ele></trkpt>
      <trkpt lat="38.8915746" lon="-77.0411507"><ele>7.0</ele></trkpt>
      <trkpt lat="38.8915746" lon="-77.0414071"><ele>7.0</ele></trkpt>
      <trkpt lat="38.8914017" lon="-77.0415354"><ele>7.0</ele></trkpt>
      <trkpt lat="38.8915746" lon="-77.0416636"><ele>7.0</ele></trkpt>
      <trkpt lat="38.8915746" lon="-77.0419201"><ele>7.0</ele></trkpt>
      <trkpt lat="38.8914017" lon="-77.0420483"><ele>7.0</ele></trkpt>
      <trkpt lat="38.8912288" lon="-77.0419201"><ele>7.0</ele></trkpt>
      <trkpt lat="38.8912288" lon="-77.0421766"><ele>7.0</ele></trkpt>
      <trkpt lat="38.8910559" lon="-77.0423048"><ele>7.0</ele></trkpt>
      <trkpt lat="38.8908830" lon="-77.0421766"><ele>7.0</ele></trkpt>
      <trkpt lat="38.8908830" lon="-77.0419201"><ele>7.0</ele></trkpt>
      <trkpt lat="38.8907102" lon="-77.0420483"><ele>7.0</ele></trkpt>
      <trkpt lat="38.8905373" lon="-77.0419201"><ele>7.0</ele></trkpt>
      <trkpt lat="38.8905373" lon="-77.0416636"><ele>7.0</ele></trkpt>
      <trkpt lat="38.8907102" lon="-77.0415354"><ele>7.0</ele></trkpt>
      <trkpt lat="38.8905373" lon="-77.0414071"><ele>7.0</ele></trkpt>
      <trkpt lat="38.8905373" lon="-77.0411507"><ele>7.0</ele></trkpt>
      <trkpt lat="38.8903644" lon="-77.0412789"><ele>7.0</ele></trkpt>
      <trkpt lat="38.8901915" lon="-77.0411507"><ele>7.0</ele></trkpt>
      <trkpt lat="38.8901915" lon="-77.0414071"><ele>7.0</ele></trkpt>
      <trkpt lat="38.8900186" lon="-77.0415354"><ele>7.0</ele></trkpt>
      <trkpt lat="38.8898458" lon="-77.0414071"><ele>7.0</ele></trkpt>
      <trkpt lat="38.8898458" lon="-77.0411507"><ele>7.0</ele></trkpt>
      <trkpt lat="38.8896729" lon="-77.0412789"><ele>7.0</ele></trkpt>
      <trkpt lat="38.8895000" lon="-77.0411507"><ele>7.0</ele></trkpt>
      <trkpt lat="38.8895000" lon="-77.0408942"><ele>7.0</ele></trkpt>
      <trkpt lat="38.8896729" lon="-77.0407660"><ele>7.0</ele></trkpt>
      <trkpt lat="38.8895000" lon="-77.0406377"><ele>7.0</ele></trkpt>
      <trkpt lat="38.8895000" lon="-77.0403813"><ele>7.0</ele></trkpt>
      <trkpt lat="38.8896729" lon="-77.0402530"><ele>7.0</ele></trkpt>
      <trkpt lat="38.8898458" lon="-77.0403813"><ele>7.0</ele></trkpt>
      <trkpt lat="38.8898458" lon="-77.0401248"><ele>7.0</ele></trkpt>
      <trkpt lat="38.8900186" lon="-77.0399966"><ele>7.0</ele></trkpt>
      <trkpt lat="38.8898458" lon="-77.0398683"><ele>7.0</ele></trkpt>
      <trkpt lat="38.8898458" lon="-77.0396119"><ele>7.0</ele></trkpt>
      <trkpt lat="38.8896729" lon="-77.0397401"><ele>7.0</ele></trkpt>
      <trkpt lat="38.8895000" lon="-77.0396119"><ele>7.0</ele></trkpt>
      <trkpt lat="38.8895000" lon="-77.0393554"><ele>7.0</ele></trkpt>
      <trkpt lat="38.8896729" lon="-77.0392272"><ele>7.0</ele></trkpt>
      <trkpt lat="38.8895000" lon="-77.0390989"><ele>7.0</ele></trkpt>
      <trkpt lat="38.8895000" lon="-77.0388425"><ele>7.0</ele></trkpt>
      <trkpt lat="38.8896729" lon="-77.0387142"><ele>7.0</ele></trkpt>
      <trkpt lat="38.8898458" lon="-77.0388425"><ele>7.0</ele></trkpt>
      <trkpt lat="38.8898458" lon="-77.0385860"><ele>7.0</ele></trkpt>
      <trkpt lat="38.8900186" lon="-77.0384578"><ele>7.0</ele></trkpt>
      <trkpt lat="38.8901915" lon="-77.0385860"><ele>7.0</ele></trkpt>
      <trkpt lat="38.8901915" lon="-77.0388425"><ele>7.0</ele></trkpt>
      <trkpt lat="38.8903644" lon="-77.0387142"><ele>7.0</ele></trkpt>
      <trkpt lat="38.8905373" lon="-77.0388425"><ele>7.0</ele></trkpt>
      <trkpt lat="38.8905373" lon="-77.0385860"><ele>7.0</ele></trkpt>
      <trkpt lat="38.8907102" lon="-77.0384578"><ele>7.0</ele></trkpt>
      <trkpt lat="38.8905373" lon="-77.0383295"><ele>7.0</ele></trkpt>
      <trkpt lat="38.8905373" lon="-77.0380731"><ele>7.0</ele></trkpt>
      <trkpt lat="38.8907102" lon="-77.0379448"><ele>7.0</ele></trkpt>
      <trkpt lat="38.8908830" lon="-77.0380731"><ele>7.0</ele></trkpt>
      <trkpt lat="38.8908830" lon="-77.0378166"><ele>7.0</ele></trkpt>
      <trkpt lat="38.8910559" lon="-77.0376883"><ele>7.0</ele></trkpt>
      <trkpt lat="38.8908830" lon="-77.0375601"><ele>7.0</ele></trkpt>
      <trkpt lat="38.8908830" lon="-77.0373036"><ele>7.0</ele></trkpt>
      <trkpt lat="38.8907102" lon="-77.0374319"><ele>7.0</ele></trkpt>
      <trkpt lat="38.8905373" lon="-77.0373036"><ele>7.0</ele></trkpt>
      <trkpt lat="38.8905373" lon="-77.0370472"><ele>7.0</ele></trkpt>
      <trkpt lat="38.8907102" lon="-77.0369189"><ele>7.0</ele></trkpt>
      <trkpt lat="38.8905373" lon="-77.0367907"><ele>7.0</ele></trkpt>
      <trkpt lat="38.8905373" lon="-77.0365342"><ele>7.0</ele></trkpt>
      <trkpt lat="38.8903644" lon="-77.0366625"><ele>7.0</ele></trkpt>
      <trkpt lat="38.8901915" lon="-77.0365342"><ele>7.0</ele></trkpt>
      <trkpt lat="38.8901915" lon="-77.0367907"><ele>7.0</ele></trkpt>
      <trkpt lat="38.8900186" lon="-77.0369189"><ele>7.0</ele></trkpt>
      <trkpt lat="38.8898458" lon="-77.0367907"><ele>7.0</ele></trkpt>
      <trkpt lat="38.8898458" lon="-77.0365342"><ele>7.0</ele></trkpt>
      <trkpt lat="38.8896729" lon="-77.0366625"><ele>7.0</ele></trkpt>
      <trkpt lat="38.8895000" lon="-77.0365342"><ele>7.0</ele></trkpt>
      <trkpt lat="38.8895000" lon="-77.0362778"><ele>7.0</ele></trkpt>
      <trkpt lat="38.8896729" lon="-77.0361495"><ele>7.0</ele></trkpt>
      <trkpt lat="38.8895000" lon="-77.0360213"><ele>7.0</ele></trkpt>
      <trkpt lat="38.8895000" lon="-77.0357648"><ele>7.0</ele></trkpt>
      <trkpt lat="38.8896729" lon="-77.0356366"><ele>7.0</ele></trkpt>
      <trkpt lat="38.8898458" lon="-77.0357648"><ele>7.0</ele></trkpt>
      <trkpt lat="38.8898458" lon="-77.0355084"><ele>7.0</ele></trkpt>
      <trkpt lat="38.8900186" lon="-77.0353801"><ele>7.0</ele></trkpt>
      <trkpt lat="38.8898458" lon="-77.0352519"><ele>7.0</ele></trkpt>
      <trkpt lat="38.8898458" lon="-77.0349954"><ele>7.0</ele></trkpt>
      <trkpt lat="38.8896729" lon="-77.0351237"><ele>7.0</ele></trkpt>
      <trkpt lat="38.8895000" lon="-77.0349954"><ele>7.0</ele></trkpt>
      <trkpt lat="38.8895000" lon="-77.0347390"><ele>7.0</ele></trkpt>
      <trkpt lat="38.8896729" lon="-77.0346107"><ele>7.0</ele></trkpt>
      <trkpt lat="38.8895000" lon="-77.0344825"><ele>7.0</ele></trkpt>
      <trkpt lat="38.8895000" lon="-77.0342260"><ele>7.0</ele></trkpt>
    </trkseg>
  </trk>
</gpx>

